{
    "links": {
        "self": "http://www.neowsapp.com/rest/v1/neo/3780768?api_key=iIulBulltgU6a56xZRHN4H3l9WmuAYTsLGpBGhQ2"
    },
    "id": "3780768",
    "neo_reference_id": "3780768",
    "name": "(2017 QD2)",
    "designation": "2017 QD2",
    "nasa_jpl_url": "http://ssd.jpl.nasa.gov/sbdb.cgi?sstr=3780768",
    "absolute_magnitude_h": 26.5,
    "estimated_diameter": {
        "kilometers": {
            "estimated_diameter_min": 0.0133215567,
            "estimated_diameter_max": 0.0297879063
        },
        "meters": {
            "estimated_diameter_min": 13.3215566698,
            "estimated_diameter_max": 29.7879062798
        },
        "miles": {
            "estimated_diameter_min": 0.008277629,
            "estimated_diameter_max": 0.0185093411
        },
        "feet": {
            "estimated_diameter_min": 43.7058959846,
            "estimated_diameter_max": 97.7293544391
        }
    },
    "is_potentially_hazardous_asteroid": false,
    "close_approach_data": [
        {
            "close_approach_date": "2017-08-07",
            "close_approach_date_full": "2017-Aug-07 16:28",
            "epoch_date_close_approach": 1502123280000,
            "relative_velocity": {
                "kilometers_per_second": "6.7233644582",
                "kilometers_per_hour": "24204.1120496619",
                "miles_per_hour": "15039.4939566358"
            },
            "miss_distance": {
                "astronomical": "0.0323011981",
                "lunar": "12.5651660609",
                "kilometers": "4832190.434208047",
                "miles": "3002583.9041511686"
            },
            "orbiting_body": "Earth"
        }
    ],
    "orbital_data": {
        "orbit_id": "2",
        "orbit_determination_date": "2019-07-17 06:12:06",
        "first_observation_date": "2017-08-15",
        "last_observation_date": "2017-08-20",
        "data_arc_in_days": 5,
        "observations_used": 25,
        "orbit_uncertainty": "8",
        "minimum_orbit_intersection": ".0195537",
        "jupiter_tisserand_invariant": "4.024",
        "epoch_osculation": "2457982.5",
        "eccentricity": ".4157070439031004",
        "semi_major_axis": "1.752412294761026",
        "inclination": "2.760030626537226",
        "ascending_node_longitude": "142.7431645674134",
        "orbital_period": "847.3305484011722",
        "perihelion_distance": "1.023922160006471",
        "perihelion_argument": "152.8940139758554",
        "aphelion_distance": "2.48090242951558",
        "perihelion_time": "2457956.723585483643",
        "mean_anomaly": "10.95146309005148",
        "mean_motion": ".4248637095396642",
        "equinox": "J2000",
        "orbit_class": {
            "orbit_class_type": "AMO",
            "orbit_class_description": "Near-Earth asteroid orbits similar to that of 1221 Amor",
            "orbit_class_range": "1.017 AU < q (perihelion) < 1.3 AU"
        }
    },
    "is_sentry_object": false
}